NORAD_CAT_ID,OBJECT_NAME,OBJECT_TYPE,EPOCH,MEAN_MOTION,ECCENTRICITY,INCLINATION,RA_OF_ASC_NODE,ARG_OF_PERICENTER,MEAN_ANOMALY,BSTAR,MEAN_MOTION_DOT,MEAN_MOTION_DDOT,TLE_LINE0,TLE_LINE1,TLE_LINE2,SEMIMAJOR_AXIS,PERIOD,APOGEE,PERIGEE,DECAYED
52539.0,STARLINK-3757,PAYLOAD,2023-02-21 19:02:13,15.08832489,0.0001489,53.2168,80.6147,87.3598,272.7565,-0.00013582,-2.448e-05,0.0,0 STARLINK-3757,1 52539U 22051G   23052.79320825 -.00002448  00000-0 -13582-3 0  9994,2 52539  53.2168  80.6147 0001489  87.3598 272.7565 15.08832489 43659,6917.903,95.438,540.798,538.738,0.0
52539.0,STARLINK-3757,PAYLOAD,2023-02-22 10:56:04,15.08845045,0.0001408,53.2149,77.6428,82.1496,277.9656,0.00028935,4.321e-05,0.0,0 STARLINK-3757,1 52539U 22051G   23053.45560491  .00004321  00000-0  28935-3 0  9991,2 52539  53.2149  77.6428 0001408  82.1496 277.9656 15.08845045 43758,6917.865,95.437,540.704,538.756,0.0
52539.0,STARLINK-3757,PAYLOAD,2023-02-22 18:53:00,15.08840508,0.0001349,53.2148,76.1564,88.9628,271.1518,0.00027857,4.148e-05,0.0,0 STARLINK-3757,1 52539U 22051G   23053.78680835  .00004148  00000-0  27857-3 0  9991,2 52539  53.2148  76.1564 0001349  88.9628 271.1518 15.08840508 43805,6917.879,95.438,540.677,538.811,0.0
52539.0,STARLINK-3757,PAYLOAD,2023-02-23 10:46:51,15.08845303,0.0001386,53.2148,73.1823,89.3875,270.7276,0.0004201,6.405e-05,0.0,0 STARLINK-3757,1 52539U 22051G   23054.44920888  .00006405  00000-0  42010-3 0  9996,2 52539  53.2148  73.1823 0001386  89.3875 270.7276 15.08845303 43837,6917.864,95.437,540.688,538.77,0.0
52539.0,STARLINK-3757,PAYLOAD,2023-02-23 18:43:47,15.0884102,0.0001273,53.215,71.696,78.1446,281.9689,0.0002182,3.187e-05,0.0,0 STARLINK-3757,1 52539U 22051G   23054.78041024  .00003187  00000-0  21820-3 0  9999,2 52539  53.2150  71.6960 0001273  78.1446 281.9689 15.08841020 43889,6917.877,95.437,540.623,538.862,0.0
52539.0,STARLINK-3757,PAYLOAD,2023-02-24 01:05:20,15.08840555,0.0001178,53.2153,70.5061,80.684,279.4285,0.00020263,2.939e-05,0.0,0 STARLINK-3757,1 52539U 22051G   23055.04537069  .00002939  00000-0  20263-3 0  9992,2 52539  53.2153  70.5061 0001178  80.6840 279.4285 15.08840555 43990,6917.879,95.438,540.559,538.929,0.0
52539.0,STARLINK-3757,PAYLOAD,2023-02-24 12:13:01,15.08854689,0.0001349,53.2158,68.425,82.7232,277.3914,0.00027946,4.164e-05,0.0,0 STARLINK-3757,1 52539U 22051G   23055.50904270  .00004164  00000-0  27946-3 0  9992,2 52539  53.2158  68.4250 0001349  82.7232 277.3914 15.08854689 43998,6917.835,95.437,540.634,538.767,0.0
52539.0,STARLINK-3757,PAYLOAD,2023-02-25 00:56:07,15.08832997,0.00012,53.2159,66.045,95.6784,264.4345,-3.7819e-05,-8.9e-06,0.0,0 STARLINK-3757,1 52539U 22051G   23056.03897255 -.00000890  00000-0 -37819-4 0  9990,2 52539  53.2159  66.0450 0001200  95.6784 264.4345 15.08832997 44147,6917.902,95.438,540.597,538.937,0.0
52539.0,STARLINK-3757,PAYLOAD,2023-02-25 12:03:48,15.08843524,0.0001218,53.2157,63.964,89.8753,270.2379,0.00015332,2.153e-05,0.0,0 STARLINK-3757,1 52539U 22051G   23056.50265019  .00002153  00000-0  15332-3 0  9996,2 52539  53.2157  63.9640 0001218  89.8753 270.2379 15.08843524 44210,6917.87,95.437,540.577,538.892,0.0
52539.0,STARLINK-3757,PAYLOAD,2023-02-26 10:19:12,15.08864342,0.0001251,53.2168,59.8009,96.0961,264.0174,0.0010126,0.00015875,0.0,0 STARLINK-3757,1 52539U 22051G   23057.43000683  .00015875  00000-0  10126-2 0  9993,2 52539  53.2168  59.8009 0001251  96.0961 264.0174 15.08864342 44285,6917.806,95.436,540.536,538.806,0.0
52539.0,STARLINK-3757,PAYLOAD,2023-02-26 16:40:45,15.08848693,0.0001333,53.2176,58.612,81.7546,278.3597,0.00034167,5.155e-05,0.0,0 STARLINK-3757,1 52539U 22051G   23057.69496988  .00005155  00000-0  34167-3 0  9990,2 52539  53.2176  58.6120 0001333  81.7546 278.3597 15.08848693 44396,6917.854,95.437,540.641,538.797,0.0
52539.0,STARLINK-3757,PAYLOAD,2023-02-27 05:23:50,15.08844275,0.0001322,53.2173,56.2324,96.3805,263.7338,0.00025569,3.784e-05,0.0,0 STARLINK-3757,1 52539U 22051G   23058.22489072  .00003784  00000-0  25569-3 0  9998,2 52539  53.2173  56.2324 0001322  96.3805 263.7338 15.08844275 44473,6917.867,95.437,540.647,538.818,0.0
52539.0,STARLINK-3757,PAYLOAD,2023-02-27 10:09:59,15.08859099,0.0001215,53.2168,55.3404,87.62,272.4931,0.00074558,0.00011604,0.0,0 STARLINK-3757,1 52539U 22051G   23058.42360850  .00011604  00000-0  74558-3 0  9994,2 52539  53.2168  55.3404 0001215  87.6200 272.4931 15.08859099 44431,6917.822,95.436,540.528,538.846,0.0
52539.0,STARLINK-3757,PAYLOAD,2023-02-27 16:31:32,15.08881737,7.05e-05,53.2168,54.1518,97.247,262.8602,0.002947,0.0004698,0.0,0 STARLINK-3757,1 52539U 22051G   23058.68856665  .00046980  00000-0  29470-2 0  9993,2 52539  53.2168  54.1518 0000705  97.2470 262.8602 15.08881737 44547,6917.753,95.435,540.106,539.13,0.0
52539.0,STARLINK-3757,PAYLOAD,2023-02-28 06:49:59,15.08892469,0.0001233,53.2163,51.4746,88.008,272.1053,0.0015415,0.00024365,0.0,0 STARLINK-3757,1 52539U 22051G   23059.28471349  .00024365  00000-0  15415-2 0  9999,2 52539  53.2163  51.4746 0001233  88.0080 272.1053 15.08892469 44635,6917.72,95.434,540.438,538.732,0.0
52539.0,STARLINK-3757,PAYLOAD,2023-02-28 11:36:07,15.0890951,0.0001273,53.2161,50.5829,83.3798,276.7339,0.0016984,0.00026897,0.0,0 STARLINK-3757,1 52539U 22051G   23059.48342445  .00026897  00000-0  16984-2 0  9999,2 52539  53.2161  50.5829 0001273  83.3798 276.7339 15.08909510 44591,6917.668,95.433,540.414,538.652,0.0
52539.0,STARLINK-3757,PAYLOAD,2023-02-28 16:22:18,15.08821708,0.0001209,53.2168,49.6909,90.5352,269.5778,-0.0019091,-0.00030527,0.0,0 STARLINK-3757,1 52539U 22051G   23059.68216045 -.00030527  00000-0 -19091-2 0  9996,2 52539  53.2168  49.6909 0001209  90.5352 269.5778 15.08821708 44624,6917.936,95.439,540.638,538.965,0.0
52539.0,STARLINK-3757,PAYLOAD,2023-03-01 08:16:12,15.08794415,0.000185,53.2161,46.717,84.5029,275.6174,0.0019774,0.00031283,0.0,0 STARLINK-3757,1 52539U 22051G   23060.34458399  .00031283  00000-0  19774-2 0  9997,2 52539  53.2161  46.7170 0001850  84.5029 275.6174 15.08794415 44791,6918.02,95.44,541.165,538.605,0.0
52539.0,STARLINK-3757,PAYLOAD,2023-03-01 16:13:08,15.08811806,0.0001903,53.2176,45.2294,85.4813,274.6397,0.0016721,0.00026403,0.0,0 STARLINK-3757,1 52539U 22051G   23060.67579136  .00026403  00000-0  16721-2 0  9993,2 52539  53.2176  45.2294 0001903  85.4813 274.6397 15.08811806 44776,6917.967,95.439,541.148,538.515,0.0
52539.0,STARLINK-3757,PAYLOAD,2023-03-02 16:03:54,15.08870267,0.0001327,53.2179,40.7689,92.6938,267.4206,0.0015083,0.00023818,0.0,0 STARLINK-3757,1 52539U 22051G   23061.66938596  .00023818  00000-0  15083-2 0  9999,2 52539  53.2179  40.7689 0001327  92.6938 267.4206 15.08870267 44927,6917.788,95.436,540.571,538.735,0.0
52539.0,STARLINK-3757,PAYLOAD,2023-03-03 07:57:45,15.08902594,0.0002009,53.2172,37.7951,94.446,265.6762,0.0021399,0.00033992,0.0,0 STARLINK-3757,1 52539U 22051G   23062.33177115  .00033992  00000-0  21399-2 0  9997,2 52539  53.2172  37.7951 0002009  94.4460 265.6762 15.08902594 45091,6917.689,95.434,540.944,538.164,0.0
52539.0,STARLINK-3757,PAYLOAD,2023-03-03 15:54:41,15.08850576,0.0002377,53.217,36.3097,80.9541,279.172,0.00063941,9.906e-05,0.0,0 STARLINK-3757,1 52539U 22051G   23062.66298098  .00009906  00000-0  63941-3 0  9995,2 52539  53.2170  36.3097 0002377  80.9541 279.1720 15.08850576 45145,6917.848,95.437,541.357,538.069,0.0
52539.0,STARLINK-3757,PAYLOAD,2023-03-04 07:48:34,15.08804134,0.0001767,53.2174,33.336,88.7005,271.4189,0.0025333,0.0004022,0.0,0 STARLINK-3757,1 52539U 22051G   23063.32540370  .00040220  00000-0  25333-2 0  9998,2 52539  53.2174  33.3360 0001767  88.7005 271.4189 15.08804134 45246,6917.99,95.44,541.077,538.633,0.0
52539.0,STARLINK-3757,PAYLOAD,2023-03-04 22:07:02,15.08878473,0.0001644,53.2173,30.6594,91.712,268.406,0.003372,0.00053845,0.0,0 STARLINK-3757,1 52539U 22051G   23063.92156018  .00053845  00000-0  33720-2 0  9992,2 52539  53.2173  30.6594 0001644  91.7120 268.4060 15.08878473 45331,6917.763,95.435,540.765,538.491,0.0
52539.0,STARLINK-3757,PAYLOAD,2023-03-05 04:28:34,15.08913245,0.0001614,53.2173,29.4699,95.3434,264.7742,0.0037314,0.00059721,0.0,0 STARLINK-3757,1 52539U 22051G   23064.18650969  .00059721  00000-0  37314-2 0  9997,2 52539  53.2173  29.4699 0001614  95.3434 264.7742 15.08913245 45308,6917.657,95.433,540.638,538.405,0.0
52539.0,STARLINK-3757,PAYLOAD,2023-03-06 04:19:20,15.08886758,0.0001617,53.2174,25.009,71.3182,288.7985,0.0038012,0.00060808,0.0,0 STARLINK-3757,1 52539U 22051G   23065.18009518  .00060808  00000-0  38012-2 0  9990,2 52539  53.2174  25.0090 0001617  71.3182 288.7985 15.08886758 45520,6917.737,95.435,540.721,538.484,0.0
52539.0,STARLINK-3757,PAYLOAD,2023-03-06 07:30:06,15.08901086,0.0001651,53.2177,24.4149,77.4818,282.6359,0.0041523,0.00066532,0.0,0 STARLINK-3757,1 52539U 22051G   23065.31257156  .00066532  00000-0  41523-2 0  9999,2 52539  53.2177  24.4149 0001651  77.4818 282.6359 15.08901086 45476,6917.694,95.434,540.701,538.417,0.0
52539.0,STARLINK-3757,PAYLOAD,2023-03-07 05:45:31,15.0883298,0.0001148,53.2178,20.2525,89.0213,271.091,0.0013122,0.00020653,0.0,0 STARLINK-3757,1 52539U 22051G   23066.23994350  .00020653  00000-0  13122-2 0  9993,2 52539  53.2178  20.2525 0001148  89.0213 271.0910 15.08832980 45682,6917.902,95.438,540.561,538.973,0.0
52539.0,STARLINK-3757,PAYLOAD,2023-03-08 04:00:55,15.08855925,0.0001331,53.2175,16.0884,80.0934,280.0208,0.0020185,0.00031997,0.0,0 STARLINK-3757,1 52539U 22051G   23067.16730364  .00031997  00000-0  20185-2 0  9999,2 52539  53.2175  16.0884 0001331  80.0934 280.0208 15.08855925 45825,6917.832,95.437,540.617,538.776,0.0
52539.0,STARLINK-3757,PAYLOAD,2023-03-08 19:54:46,15.08854027,0.0001253,53.2177,13.116,92.8702,267.2433,0.0010573,0.00016585,0.0,0 STARLINK-3757,1 52539U 22051G   23067.82970147  .00016585  00000-0  10573-2 0  9993,2 52539  53.2177  13.1160 0001253  92.8702 267.2433 15.08854027 45851,6917.838,95.437,540.569,538.836,0.0
